STARLINK-32464          
1 62140U 24224B   26068.54125711  .00035611  00000+0  12978-2 0  9999
2 62140  42.9933 159.2559 0001919 287.9756  72.0887 15.27568956 72392
KUIPER-00209            
1 67776U 26030N   26068.61786546  .00035298  00000+0  11963-2 0  9997
2 67776  51.8838 220.0775 0012191  59.1967 301.0215 15.30161950  5077
